{"type": "FeatureCollection", "features": [ {"type": "Feature", "properties": {"norad_id": 17070, "name": "POLAR BEAR", "group": "nnss", "lat": 53.993797392263716, "lon": 3.65067968589934, "alt_km": 948.467008852147, "timestamp": "2025-12-02T15:49:07.457920+00:00", "meta": {"OBJECT_NAME": "POLAR BEAR", "OBJECT_ID": "1986-088A", "EPOCH": "2025-12-02T03:32:25.117152", "MEAN_MOTION": 13.75247416, "ECCENTRICITY": 0.00401774, "INCLINATION": 89.6181, "RA_OF_ASC_NODE": 184.1971, "ARG_OF_PERICENTER": 150.1394, "MEAN_ANOMALY": 324.6411, "EPHEMERIS_TYPE": 0, "CLASSIFICATION_TYPE": "U", "NORAD_CAT_ID": 17070, "ELEMENT_SET_NO": 999, "REV_AT_EPOCH": 95833, "BSTAR": 0.00012850261, "MEAN_MOTION_DOT": 1.35e-06, "MEAN_MOTION_DDOT": 0}, "tle": {"line1": "1 17070U 86088A   25336.14751293  .00000135  00000+0  12850-3 0  9993", "line2": "2 17070  89.6181 184.1971 0040177 150.1394 324.6411 13.75247416958332"}}, "geometry": {"type": "Point", "coordinates": [3.65067968589934, 53.993797392263716]}}, {"type": "Feature", "properties": {"norad_id": 18361, "name": "OSCAR 27", "group": "nnss", "lat": 43.72184903252752, "lon": 78.53706669578334, "alt_km": 1153.9050922117167, "timestamp": "2025-12-02T15:49:07.457931+00:00", "meta": {"OBJECT_NAME": "OSCAR 27", "OBJECT_ID": "1987-080A", "EPOCH": "2025-12-02T06:40:17.278464", "MEAN_MOTION": 13.44903251, "ECCENTRICITY": 0.01023013, "INCLINATION": 90.3742, "RA_OF_ASC_NODE": 78.8809, "ARG_OF_PERICENTER": 254.1806, "MEAN_ANOMALY": 104.8045, "EPHEMERIS_TYPE": 0, "CLASSIFICATION_TYPE": "U", "NORAD_CAT_ID": 18361, "ELEMENT_SET_NO": 999, "REV_AT_EPOCH": 87416, "BSTAR": 0.00020473768, "MEAN_MOTION_DOT": 1.31e-06, "MEAN_MOTION_DDOT": 0}, "tle": {"line1": "1 18361U 87080A   25336.27797776  .00000131  00000+0  20474-3 0  9997", "line2": "2 18361  90.3742  78.8809 0102301 254.1806 104.8045 13.44903251874169"}}, "geometry": {"type": "Point", "coordinates": [78.53706669578334, 43.72184903252752]}}, {"type": "Feature", "properties": {"norad_id": 18362, "name": "OSCAR 29", "group": "nnss", "lat": 72.47093095373333, "lon": 78.163669279005, "alt_km": 1156.525309750058, "timestamp": "2025-12-02T15:49:07.457941+00:00", "meta": {"OBJECT_NAME": "OSCAR 29", "OBJECT_ID": "1987-080B", "EPOCH": "2025-12-02T06:47:22.260192", "MEAN_MOTION": 13.44445338, "ECCENTRICITY": 0.01036764, "INCLINATION": 90.3755, "RA_OF_ASC_NODE": 79.3392, "ARG_OF_PERICENTER": 277.6067, "MEAN_ANOMALY": 134.5949, "EPHEMERIS_TYPE": 0, "CLASSIFICATION_TYPE": "U", "NORAD_CAT_ID": 18362, "ELEMENT_SET_NO": 999, "REV_AT_EPOCH": 87369, "BSTAR": 0.00016237464, "MEAN_MOTION_DOT": 1.05e-06, "MEAN_MOTION_DDOT": 0}, "tle": {"line1": "1 18362U 87080B   25336.28289653  .00000105  00000+0  16237-3 0  9992", "line2": "2 18362  90.3755  79.3392 0103676 277.6067 134.5949 13.44445338873699"}}, "geometry": {"type": "Point", "coordinates": [78.163669279005, 72.47093095373333]}}, {"type": "Feature", "properties": {"norad_id": 19070, "name": "OSCAR 23", "group": "nnss", "lat": 89.22066187757787, "lon": -8.386605511444014, "alt_km": 1213.8567034524522, "timestamp": "2025-12-02T15:49:07.457952+00:00", "meta": {"OBJECT_NAME": "OSCAR 23", "OBJECT_ID": "1988-033A", "EPOCH": "2025-12-02T04:51:39.200256", "MEAN_MOTION": 13.2778468, "ECCENTRICITY": 0.01886647, "INCLINATION": 90.3226, "RA_OF_ASC_NODE": 16.0656, "ARG_OF_PERICENTER": 209.2712, "MEAN_ANOMALY": 220.7503, "EPHEMERIS_TYPE": 0, "CLASSIFICATION_TYPE": "U", "NORAD_CAT_ID": 19070, "ELEMENT_SET_NO": 999, "REV_AT_EPOCH": 82113, "BSTAR": 0.00022751021, "MEAN_MOTION_DOT": 1.21e-06, "MEAN_MOTION_DDOT": 0}, "tle": {"line1": "1 19070U 88033A   25336.20253704  .00000121  00000+0  22751-3 0  9994", "line2": "2 19070  90.3226  16.0656 0188664 209.2712 220.7503 13.27784680821131"}}, "geometry": {"type": "Point", "coordinates": [-8.386605511444014, 89.22066187757787]}}, {"type": "Feature", "properties": {"norad_id": 19071, "name": "OSCAR 32", "group": "nnss", "lat": -15.600551923745503, "lon": -163.87906776025787, "alt_km": 1017.9830913026017, "timestamp": "2025-12-02T15:49:07.457962+00:00", "meta": {"OBJECT_NAME": "OSCAR 32", "OBJECT_ID": "1988-033B", "EPOCH": "2025-12-02T04:19:01.015104", "MEAN_MOTION": 13.27951754, "ECCENTRICITY": 0.0187479, "INCLINATION": 90.3228, "RA_OF_ASC_NODE": 16.1961, "ARG_OF_PERICENTER": 196.1591, "MEAN_ANOMALY": 229.5641, "EPHEMERIS_TYPE": 0, "CLASSIFICATION_TYPE": "U", "NORAD_CAT_ID": 19071, "ELEMENT_SET_NO": 999, "REV_AT_EPOCH": 82125, "BSTAR": 0.00016986841, "MEAN_MOTION_DOT": 9.2e-07, "MEAN_MOTION_DDOT": 0}, "tle": {"line1": "1 19071U 88033B   25336.17987286  .00000092  00000+0  16987-3 0  9991", "line2": "2 19071  90.3228  16.1961 0187479 196.1591 229.5641 13.27951754821257"}}, "geometry": {"type": "Point", "coordinates": [-163.87906776025787, -15.600551923745503]}}, {"type": "Feature", "properties": {"norad_id": 19223, "name": "NOVA 2", "group": "nnss", "lat": -34.69165156318467, "lon": -101.7063129103358, "alt_km": 1203.1693468988933, "timestamp": "2025-12-02T15:49:07.457973+00:00", "meta": {"OBJECT_NAME": "NOVA 2", "OBJECT_ID": "1988-052A", "EPOCH": "2025-12-02T07:46:37.058592", "MEAN_MOTION": 13.2293391, "ECCENTRICITY": 0.00314134, "INCLINATION": 89.9873, "RA_OF_ASC_NODE": 78.2853, "ARG_OF_PERICENTER": 44.9309, "MEAN_ANOMALY": 14.7161, "EPHEMERIS_TYPE": 0, "CLASSIFICATION_TYPE": "U", "NORAD_CAT_ID": 19223, "ELEMENT_SET_NO": 999, "REV_AT_EPOCH": 80810, "BSTAR": 0.00014832119, "MEAN_MOTION_DOT": 7.1e-07, "MEAN_MOTION_DDOT": 0}, "tle": {"line1": "1 19223U 88052A   25336.32404003  .00000071  00000+0  14832-3 0  9993", "line2": "2 19223  89.9873  78.2853 0031413  44.9309  14.7161 13.22933910808107"}}, "geometry": {"type": "Point", "coordinates": [-101.7063129103358, -34.69165156318467]}}, {"type": "Feature", "properties": {"norad_id": 19419, "name": "OSCAR 25", "group": "nnss", "lat": -62.382310809435594, "lon": 20.27913699698695, "alt_km": 1041.6173297553996, "timestamp": "2025-12-02T15:49:07.457998+00:00", "meta": {"OBJECT_NAME": "OSCAR 25", "OBJECT_ID": "1988-074A", "EPOCH": "2025-12-02T03:54:17.559936", "MEAN_MOTION": 13.42620129, "ECCENTRICITY": 0.00942054, "INCLINATION": 90.0358, "RA_OF_ASC_NODE": 20.2089, "ARG_OF_PERICENTER": 276.5776, "MEAN_ANOMALY": 142.7359, "EPHEMERIS_TYPE": 0, "CLASSIFICATION_TYPE": "U", "NORAD_CAT_ID": 19419, "ELEMENT_SET_NO": 999, "REV_AT_EPOCH": 82498, "BSTAR": 0.0002107382, "MEAN_MOTION_DOT": 1.31e-06, "MEAN_MOTION_DDOT": 0}, "tle": {"line1": "1 19419U 88074A   25336.16270324  .00000131  00000+0  21074-3 0  9996", "line2": "2 19419  90.0358  20.2089 0094205 276.5776 142.7359 13.42620129824984"}}, "geometry": {"type": "Point", "coordinates": [20.27913699698695, -62.382310809435594]}}, {"type": "Feature", "properties": {"norad_id": 19420, "name": "OSCAR 31", "group": "nnss", "lat": -1.4882221976725114, "lon": -159.4419161517957, "alt_km": 1099.6358944269832, "timestamp": "2025-12-02T15:49:07.458012+00:00", "meta": {"OBJECT_NAME": "OSCAR 31", "OBJECT_ID": "1988-074B", "EPOCH": "2025-12-02T04:29:46.788576", "MEAN_MOTION": 13.42581908, "ECCENTRICITY": 0.00924247, "INCLINATION": 90.0374, "RA_OF_ASC_NODE": 20.5573, "ARG_OF_PERICENTER": 270.6149, "MEAN_ANOMALY": 152.9738, "EPHEMERIS_TYPE": 0, "CLASSIFICATION_TYPE": "U", "NORAD_CAT_ID": 19420, "ELEMENT_SET_NO": 999, "REV_AT_EPOCH": 82509, "BSTAR": 0.00017990771, "MEAN_MOTION_DOT": 1.13e-06, "MEAN_MOTION_DDOT": 0}, "tle": {"line1": "1 19420U 88074B   25336.18734709  .00000113  00000+0  17991-3 0  9995", "line2": "2 19420  90.0374  20.5573 0092424 270.6149 152.9738 13.42581908825093"}}, "geometry": {"type": "Point", "coordinates": [-159.4419161517957, -1.4882221976725114]}}]}